{
    "week": 294,
    "satellites": [
        {
            "Name": "BEIDOU-3 M28 (C50)",
            "Line1": "1 58654U 23207A   24333.34852414 -.00000041  00000+0  00000+0 0  9992",
            "Line2": "2 58654  55.2498  81.4749 0001994 242.4646 117.4957  1.86232081  6301",
            "SatelliteNumber": "58654",
            "Classification": "U",
            "LaunchYear": "23",
            "LaunchNumber": "207",
            "PieceOfLaunch": "A",
            "EpochYear": "24",
            "EpochDay": 333.34852414,
            "FirstDerivativeMeanMotion": -4.1e-07,
            "SecondDerivativeMeanMotion": "00000+0",
            "BSTAR": "00000+0",
            "SetNumber": "999",
            "Inclination": 55.2498,
            "RAAN": 81.4749,
            "Eccentricity": 0.0001994,
            "ArgumentOfPerigee": 242.4646,
            "MeanAnomaly": 117.4957,
            "MeanMotion": 1.86232081,
            "RevolutionNumber": "630"
        },
        {
            "Name": "BEIDOU-3 M26 (C48)",
            "Line1": "1 58655U 23207B   24333.68480602 -.00000040  00000+0  00000+0 0  9995",
            "Line2": "2 58655  55.2521  81.4492 0003440 234.4355 125.5130  1.86231546  6296",
            "SatelliteNumber": "58655",
            "Classification": "U",
            "LaunchYear": "23",
            "LaunchNumber": "207",
            "PieceOfLaunch": "B",
            "EpochYear": "24",
            "EpochDay": 333.68480602,
            "FirstDerivativeMeanMotion": -4e-07,
            "SecondDerivativeMeanMotion": "00000+0",
            "BSTAR": "00000+0",
            "SetNumber": "999",
            "Inclination": 55.2521,
            "RAAN": 81.4492,
            "Eccentricity": 0.000344,
            "ArgumentOfPerigee": 234.4355,
            "MeanAnomaly": 125.513,
            "MeanMotion": 1.86231546,
            "RevolutionNumber": "629"
        }
    ]
}